ONEWEB-0156             
1 48052U 21025L   26182.13485205  .00001067  00000+0  28877-2 0  9993
2 48052  87.8979 317.4429 0001925  99.3871 260.7475 13.13466389255404
ONEWEB-0161             
1 48053U 21025M   26182.10943003 -.00000355  00000+0 -10075-2 0  9998
2 48053  87.8975 317.4493 0002063  98.3918 261.7445 13.13469840255332
ONEWEB-0158             
1 48054U 21025N   26181.84027147 -.00000057  00000+0 -19217-3 0  9998
2 48054  87.8976 317.4994 0001591  98.6516 261.4794 13.13469218255425
ONEWEB-0157             
1 48055U 21025P   26182.09421102 -.00000356  00000+0 -10106-2 0  9995
2 48055  87.8973 317.4547 0002253 101.6429 258.4953 13.13470128255392
ONEWEB-0162             
1 48056U 21025Q   26181.76566246  .00000042  00000+0  81353-4 0  9992
2 48056  87.8974 317.5207 0001939  93.9851 266.1500 13.13469085255327
ONEWEB-0155             
1 48057U 21025R   26182.07727418 -.00000088  00000+0 -27515-3 0  9999
2 48057  87.8975 317.4550 0001958 103.3668 256.7679 13.13468811255500
ONEWEB-0149             
1 48058U 21025S   26181.79457290 -.00000435  00000+0 -12275-2 0  9998
2 48058  87.8975 317.5154 0001932  92.9524 267.1826 13.13470449255272
ONEWEB-0148             
1 48059U 21025T   26182.13821869  .00000436  00000+0  11581-2 0  9993
2 48059  87.8972 317.4529 0002293  82.8259 277.3131 13.13469222255447
ONEWEB-0160             
1 48060U 21025U   26182.07896014 -.00000061  00000+0 -20067-3 0  9998
2 48060  87.8969 317.4605 0001135  95.5185 264.6074 13.13468316255384
ONEWEB-0163             
1 48061U 21025V   26182.13990936  .00000294  00000+0  76938-3 0  9998
2 48061  87.8976 317.4437 0002165 101.4290 258.7082 13.13468106255519
ONEWEB-0159             
1 48062U 21025W   26181.82673660  .00000361  00000+0  95270-3 0  9991
2 48062  87.8978 317.5000 0002110 102.9426 257.1939 13.13469460255390
ONEWEB-0164             
1 48063U 21025X   26182.11281911 -.00000183  00000+0 -53635-3 0  9992
2 48063  87.8977 317.4496 0001805  99.3119 260.8214 13.13469987255410
ONEWEB-0167             
1 48064U 21025Y   26182.14076536  .00000259  00000+0  67433-3 0  9994
2 48064  87.8969 317.4523 0002207 122.1381 237.9963 13.13467698255408
ONEWEB-0166             
1 48065U 21025Z   26182.08743288 -.00000430  00000+0 -12119-2 0  9996
2 48065  87.8978 317.4357 0001933  96.9607 263.1742 13.13469733255473
ONEWEB-0151             
1 48066U 21025AA  26182.08911493 -.00000201  00000+0 -58433-3 0  9998
2 48066  87.8971 317.4512 0001866 102.4132 257.7206 13.13468336255417
ONEWEB-0170             
1 48067U 21025AB  26181.41197356 -.00000191  00000+0 -55737-3 0  9991
2 48067  87.8970 317.5882 0001436 109.9782 250.1501 13.13469307255283
ONEWEB-0168             
1 48068U 21025AC  26182.08234389 -.00000160  00000+0 -47184-3 0  9997
2 48068  87.8978 317.4550 0001908 100.2003 259.9341 13.13468202255380
ONEWEB-0173             
1 48069U 21025AD  26182.07388727 -.00000069  00000+0 -22455-3 0  9995
2 48069  87.8972 317.4578 0002181 105.0445 255.0925 13.13468843255625
ONEWEB-0171             
1 48070U 21025AE  26182.11112470 -.00000308  00000+0 -87870-3 0  9990
2 48070  87.8967 317.4581 0001838 101.7808 258.3527 13.13469912255441
ONEWEB-0172             
1 48071U 21025AF  26182.09081521 -.00000216  00000+0 -62619-3 0  9992
2 48071  87.8972 317.4529 0001968 103.2840 256.8509 13.13469465256332
ONEWEB-0174             
1 48072U 21025AG  26182.07218980  .00006088  00000+0  16628-1 0  9990
2 48072  87.8984 317.4550 0001872  90.4114 269.7230 13.13460987255653
ONEWEB-0175             
1 48073U 21025AH  26182.10266095 -.00000439  00000+0 -12381-2 0  9994
2 48073  87.8978 317.4348 0001791 109.3295 250.8028 13.13469937255315
ONEWEB-0177             
1 48074U 21025AJ  26182.11451740  .00000065  00000+0  14378-3 0  9991
2 48074  87.8974 317.4507 0002112  97.3409 262.7961 13.13469235255500
ONEWEB-0178             
1 48075U 21025AK  26181.37151120  .00000436  00000+0  11587-2 0  9998
2 48075  87.8967 317.6081 0001827 104.1163 256.0169 13.13468968255450
ONEWEB-0108             
1 48076U 21025AL  26182.09250385 -.00000431  00000+0 -12150-2 0  9996
2 48076  87.8977 317.4463 0001787  91.9158 268.2175 13.13469670255471
ONEWEB-0169             
1 48077U 21025AM  26182.12467321  .00000075  00000+0  17101-3 0  9995
2 48077  87.8971 317.4473 0001983  96.1616 263.9739 13.13469733254131
ONEWEB-0176             
1 48210U 21031A   26182.03242179 -.00000092  00000+0 -28169-3 0  9990
2 48210  87.8973 286.9405 0001994 103.6223 256.5129 13.14502996250134
ONEWEB-0184             
1 48211U 21031B   26182.00546326 -.00000400  00000+0 -11140-2 0  9992
2 48211  87.8980 286.9474 0002143 123.6150 236.5184 13.14502497250109
ONEWEB-0179             
1 48212U 21031C   26181.99356722  .00000350  00000+0  10901-3 0  9996
2 48212  87.8998 283.6496 0219817 211.8063 146.9700 14.25535462251018
ONEWEB-0180             
1 48213U 21031D   26181.32358295 -.00000245  00000+0 -69579-3 0  9991
2 48213  87.8983 287.0796 0002361 106.4666 253.6723 13.14504559249946
ONEWEB-0218             
1 48214U 21031E   26182.03084595  .00000028  00000+0  40955-4 0  9995
2 48214  87.8980 286.9380 0002436 121.2038 238.9331 13.14503107250190
ONEWEB-0209             
1 48215U 21031F   26182.01973983 -.00000212  00000+0 -60674-3 0  9998
2 48215  87.8969 286.9559 0002223  99.5374 260.6007 13.14501577250191
ONEWEB-0198             
1 48216U 21031G   26182.00402244 -.00000179  00000+0 -51766-3 0  9999
2 48216  87.8945 286.9594 0002315 112.8484 247.2890 13.14502721250304
ONEWEB-0189             
1 48217U 21031H   26181.71209344 -.00000312  00000+0 -87560-3 0  9993
2 48217  87.8974 287.0031 0002211 107.1281 253.0091 13.14503215250006
ONEWEB-0196             
1 48218U 21031J   26181.99436618 -.00000190  00000+0 -54720-3 0  9996
2 48218  87.8974 286.9554 0002123 101.8185 258.3183 13.14502475250042
ONEWEB-0183             
1 48219U 21031K   26182.04510833  .00000044  00000+0  84926-4 0  9994
2 48219  87.8969 286.9433 0002000  95.0087 265.1271 13.14502174250143
ONEWEB-0185             
1 48220U 21031L   26181.99515524 -.00000029  00000+0 -11245-3 0  9999
2 48220  87.8980 286.9477 0002350  94.3822 265.7577 13.14502977250060
ONEWEB-0187             
1 48221U 21031M   26182.05131662  .00000124  00000+0  29862-3 0  9993
2 48221  87.8968 286.9509 0002202 101.2260 258.9118 13.14501653250080
ONEWEB-0192             
1 48222U 21031N   26181.71685836 -.00000083  00000+0 -25840-3 0  9991
2 48222  87.8971 287.0080 0002046 103.4624 256.6734 13.14502800249953
ONEWEB-0219             
1 48223U 21031P   26182.00070284 -.00000099  00000+0 -30179-3 0  9998
2 48223  87.8976 286.9436 0002227  98.5531 261.5851 13.14502327250191
ONEWEB-0202             
1 48224U 21031Q   26181.98168637  .00000140  00000+0  34297-3 0  9995
2 48224  87.8975 286.9600 0002310 116.3111 243.8256 13.14502801250177
ONEWEB-0204             
1 48225U 21031R   26181.71129458 -.00000194  00000+0 -55664-3 0  9997
2 48225  87.8973 287.0087 0002010  88.2028 271.9332 13.14503109250032
ONEWEB-0205             
1 48226U 21031S   26181.99119372  .00000024  00000+0  29106-4 0  9995
2 48226  87.8982 286.9468 0002271 100.5882 259.5503 13.14501343250084
ONEWEB-0206             
1 48227U 21031T   26182.04034304 -.00000117  00000+0 -34898-3 0  9992
2 48227  87.8975 286.9382 0001801 100.1238 260.0095 13.14502234250040
ONEWEB-0182             
1 48228U 21031U   26182.03559892  .00000120  00000+0  28853-3 0  9992
2 48228  87.8973 286.9463 0001979  93.5523 266.5833 13.14503268250259
ONEWEB-0186             
1 48229U 21031V   26182.04669882  .00000189  00000+0  47651-3 0  9997
2 48229  87.8984 286.9358 0002093 101.8348 258.3017 13.14502608250206
ONEWEB-0181             
1 48230U 21031W   26182.02448972 -.00000124  00000+0 -36965-3 0  9999
2 48230  87.8963 286.9672 0002174 103.5983 256.5389 13.14504146250052
ONEWEB-0188             
1 48231U 21031X   26181.37748603  .00000005  00000+0 -21548-4 0  9990
2 48231  87.8964 287.0954 0002023  99.5806 260.5553 13.14501551249873
ONEWEB-0220             
1 48232U 21031Y   26182.02607521 -.00000124  00000+0 -36882-3 0  9996
2 48232  87.8979 286.9414 0002307  98.1010 262.0382 13.14502795250225
ONEWEB-0165             
1 48233U 21031Z   26182.05463755  .00000273  00000+0  70116-3 0  9990
2 48233  87.8967 286.9476 0002266 109.0160 251.1215 13.14502247250184
ONEWEB-0199             
1 48234U 21031AA  26182.03876354 -.00001072  00000+0 -29260-2 0  9995
2 48234  87.8981 286.9380 0001917  98.0831 262.0516 13.14508164250087
ONEWEB-0203             
1 48235U 21031AB  26182.02923904 -.00002095  00000+0 -56868-2 0  9999
2 48235  87.8974 286.9425 0001968 104.7659 255.3689 13.14511651250091
ONEWEB-0197             
1 48236U 21031AC  26182.00373036 -.00000173  00000+0 -50146-3 0  9992
2 48236  87.8969 286.9326 0002106  93.3108 266.8263 13.14501314250004
ONEWEB-0194             
1 48237U 21031AD  26181.98327133  .00000173  00000+0  43101-3 0  9997
2 48237  87.8977 286.9592 0001793 103.0883 257.0447 13.14502857250176
ONEWEB-0193             
1 48238U 21031AE  26181.99912067  .00000626  00000+0  16553-2 0  9998
2 48238  87.8967 286.9468 0001660 103.2466 256.8849 13.14498696250123
ONEWEB-0191             
1 48239U 21031AF  26182.01024933 -.00000237  00000+0 -67273-3 0  9995
2 48239  87.8983 286.9444 0002018  95.6026 264.5334 13.14505318249987
ONEWEB-0195             
1 48240U 21031AG  26181.98723523  .00000072  00000+0  16063-3 0  9999
2 48240  87.8980 286.9491 0002299 106.3796 253.7586 13.14501983249964
ONEWEB-0201             
1 48241U 21031AH  26182.05158470  .00000303  00000+0  78382-3 0  9991
2 48241  87.8971 286.9513 0002157  94.3374 265.8002 13.14501690250202
ONEWEB-0207             
1 48242U 21031AJ  26182.03162609 -.00000373  00000+0 -10413-2 0  9998
2 48242  87.8978 286.9411 0002306  94.9767 265.1626 13.14506599250113
